{"type": "FeatureCollection", "features": [ {"type": "Feature", "properties": {"norad_id": 31657, "name": "FENGYUN 1C DEB", "group": "fengyun-1c-debris", "lat": 73.80948878225006, "lon": 121.37585229955911, "alt_km": 827.4356669876142, "timestamp": "2025-12-14T05:42:18.744004+00:00", "meta": {"OBJECT_NAME": "FENGYUN 1C DEB", "OBJECT_ID": "1999-025CBP", "EPOCH": "2025-12-13T00:01:09.097536", "MEAN_MOTION": 13.97043425, "ECCENTRICITY": 0.01473773, "INCLINATION": 102.2159, "RA_OF_ASC_NODE": 251.4824, "ARG_OF_PERICENTER": 53.2815, "MEAN_ANOMALY": 308.177, "EPHEMERIS_TYPE": 0, "CLASSIFICATION_TYPE": "U", "NORAD_CAT_ID": 31657, "ELEMENT_SET_NO": 999, "REV_AT_EPOCH": 62868, "BSTAR": 0.0048965042, "MEAN_MOTION_DOT": 7.432e-05, "MEAN_MOTION_DDOT": 0}, "tle": {"line1": "1 31657U 99025CBP 25347.00079974  .00007432  00000+0  48965-2 0  9993", "line2": "2 31657 102.2159 251.4824 0147377  53.2815 308.1770 13.97043425628687"}}, "geometry": {"type": "Point", "coordinates": [121.37585229955911, 73.80948878225006]}}, {"type": "Feature", "properties": {"norad_id": 31658, "name": "FENGYUN 1C DEB", "group": "fengyun-1c-debris", "lat": 44.309025802230195, "lon": -170.87434079214628, "alt_km": 882.4432043278439, "timestamp": "2025-12-14T05:42:18.744014+00:00", "meta": {"OBJECT_NAME": "FENGYUN 1C DEB", "OBJECT_ID": "1999-025CBQ", "EPOCH": "2025-11-30T13:35:01.131648", "MEAN_MOTION": 13.98632883, "ECCENTRICITY": 0.0215722, "INCLINATION": 98.1534, "RA_OF_ASC_NODE": 184.9954, "ARG_OF_PERICENTER": 356.7033, "MEAN_ANOMALY": 3.2699, "EPHEMERIS_TYPE": 0, "CLASSIFICATION_TYPE": "U", "NORAD_CAT_ID": 31658, "ELEMENT_SET_NO": 999, "REV_AT_EPOCH": 69646, "BSTAR": 0.0024889, "MEAN_MOTION_DOT": 4.324e-05, "MEAN_MOTION_DDOT": 0}, "tle": {"line1": "1 31658U 99025CBQ 25334.56598532  .00004324  00000+0  24889-2 0  9993", "line2": "2 31658  98.1534 184.9954 0215722 356.7033   3.2699 13.98632883696462"}}, "geometry": {"type": "Point", "coordinates": [-170.87434079214628, 44.309025802230195]}}, {"type": "Feature", "properties": {"norad_id": 31660, "name": "FENGYUN 1C DEB", "group": "fengyun-1c-debris", "lat": 67.99846285963288, "lon": -32.197166772657106, "alt_km": 814.9252221175157, "timestamp": "2025-12-14T05:42:18.744024+00:00", "meta": {"OBJECT_NAME": "FENGYUN 1C DEB", "OBJECT_ID": "1999-025CBS", "EPOCH": "2025-12-12T18:02:20.144256", "MEAN_MOTION": 14.27123007, "ECCENTRICITY": 0.01017276, "INCLINATION": 98.5071, "RA_OF_ASC_NODE": 348.0991, "ARG_OF_PERICENTER": 180.6597, "MEAN_ANOMALY": 179.4466, "EPHEMERIS_TYPE": 0, "CLASSIFICATION_TYPE": "U", "NORAD_CAT_ID": 31660, "ELEMENT_SET_NO": 999, "REV_AT_EPOCH": 7916, "BSTAR": 0.00090922122, "MEAN_MOTION_DOT": 2.301e-05, "MEAN_MOTION_DDOT": 0}, "tle": {"line1": "1 31660U 99025CBS 25346.75162204  .00002301  00000+0  90922-3 0  9998", "line2": "2 31660  98.5071 348.0991 0101727 180.6597 179.4466 14.27123007 79163"}}, "geometry": {"type": "Point", "coordinates": [-32.197166772657106, 67.99846285963288]}}, {"type": "Feature", "properties": {"norad_id": 31661, "name": "FENGYUN 1C DEB", "group": "fengyun-1c-debris", "lat": 55.41344936273538, "lon": -99.5911979298904, "alt_km": 805.634100215826, "timestamp": "2025-12-14T05:42:18.744034+00:00", "meta": {"OBJECT_NAME": "FENGYUN 1C DEB", "OBJECT_ID": "1999-025CBT", "EPOCH": "2025-12-12T04:24:25.109280", "MEAN_MOTION": 14.25428683, "ECCENTRICITY": 0.005844, "INCLINATION": 98.86, "RA_OF_ASC_NODE": 65.2597, "ARG_OF_PERICENTER": 225.2313, "MEAN_ANOMALY": 164.1203, "EPHEMERIS_TYPE": 0, "CLASSIFICATION_TYPE": "U", "NORAD_CAT_ID": 31661, "ELEMENT_SET_NO": 999, "REV_AT_EPOCH": 95705, "BSTAR": 0.0027431498, "MEAN_MOTION_DOT": 6.55e-05, "MEAN_MOTION_DDOT": 0}, "tle": {"line1": "1 31661U 99025CBT 25346.18362395  .00006550  00000+0  27431-2 0  9993", "line2": "2 31661  98.8600  65.2597 0058440 225.2313 164.1203 14.25428683957059"}}, "geometry": {"type": "Point", "coordinates": [-99.5911979298904, 55.41344936273538]}}, {"type": "Feature", "properties": {"norad_id": 31663, "name": "FENGYUN 1C DEB", "group": "fengyun-1c-debris", "lat": -52.924619684397655, "lon": 64.36747362743613, "alt_km": 514.5354955068005, "timestamp": "2025-12-14T05:42:18.744045+00:00", "meta": {"OBJECT_NAME": "FENGYUN 1C DEB", "OBJECT_ID": "1999-025CBV", "EPOCH": "2025-12-12T13:36:16.875936", "MEAN_MOTION": 14.76401771, "ECCENTRICITY": 0.01896366, "INCLINATION": 98.8374, "RA_OF_ASC_NODE": 254.4216, "ARG_OF_PERICENTER": 237.9802, "MEAN_ANOMALY": 120.2858, "EPHEMERIS_TYPE": 0, "CLASSIFICATION_TYPE": "U", "NORAD_CAT_ID": 31663, "ELEMENT_SET_NO": 999, "REV_AT_EPOCH": 99277, "BSTAR": 0.00049680247, "MEAN_MOTION_DOT": 4.569e-05, "MEAN_MOTION_DDOT": 0}, "tle": {"line1": "1 31663U 99025CBV 25346.56686199  .00004569  00000+0  49680-3 0  9997", "line2": "2 31663  98.8374 254.4216 0189636 237.9802 120.2858 14.76401771992776"}}, "geometry": {"type": "Point", "coordinates": [64.36747362743613, -52.924619684397655]}}, {"type": "Feature", "properties": {"norad_id": 31664, "name": "FENGYUN 1C DEB", "group": "fengyun-1c-debris", "lat": 58.209944878165615, "lon": -34.68009538131572, "alt_km": 858.6910524370642, "timestamp": "2025-12-14T05:42:18.744056+00:00", "meta": {"OBJECT_NAME": "FENGYUN 1C DEB", "OBJECT_ID": "1999-025CBW", "EPOCH": "2025-12-13T10:41:27.840768", "MEAN_MOTION": 14.10297353, "ECCENTRICITY": 0.01249074, "INCLINATION": 98.7513, "RA_OF_ASC_NODE": 338.9393, "ARG_OF_PERICENTER": 156.1303, "MEAN_ANOMALY": 204.5729, "EPHEMERIS_TYPE": 0, "CLASSIFICATION_TYPE": "U", "NORAD_CAT_ID": 31664, "ELEMENT_SET_NO": 999, "REV_AT_EPOCH": 96011, "BSTAR": 0.00041708442, "MEAN_MOTION_DOT": 7.53e-06, "MEAN_MOTION_DDOT": 0}, "tle": {"line1": "1 31664U 99025CBW 25347.44546112  .00000753  00000+0  41708-3 0  9990", "line2": "2 31664  98.7513 338.9393 0124907 156.1303 204.5729 14.10297353960116"}}, "geometry": {"type": "Point", "coordinates": [-34.68009538131572, 58.209944878165615]}}, {"type": "Feature", "properties": {"norad_id": 31665, "name": "FENGYUN 1C DEB", "group": "fengyun-1c-debris", "lat": -48.59210348134526, "lon": 40.755795466571044, "alt_km": 1037.2640114853984, "timestamp": "2025-12-14T05:42:18.744066+00:00", "meta": {"OBJECT_NAME": "FENGYUN 1C DEB", "OBJECT_ID": "1999-025CBX", "EPOCH": "2025-12-07T14:24:57.671136", "MEAN_MOTION": 13.84797658, "ECCENTRICITY": 0.01894703, "INCLINATION": 98.4506, "RA_OF_ASC_NODE": 25.0684, "ARG_OF_PERICENTER": 201.0018, "MEAN_ANOMALY": 158.3283, "EPHEMERIS_TYPE": 0, "CLASSIFICATION_TYPE": "U", "NORAD_CAT_ID": 31665, "ELEMENT_SET_NO": 999, "REV_AT_EPOCH": 93120, "BSTAR": 0.0019330831, "MEAN_MOTION_DOT": 2.467e-05, "MEAN_MOTION_DDOT": 0}, "tle": {"line1": "1 31665U 99025CBX 25341.60066749  .00002467  00000+0  19331-2 0  9996", "line2": "2 31665  98.4506  25.0684 0189470 201.0018 158.3283 13.84797658931204"}}, "geometry": {"type": "Point", "coordinates": [40.755795466571044, -48.59210348134526]}}, {"type": "Feature", "properties": {"norad_id": 31666, "name": "FENGYUN 1C DEB", "group": "fengyun-1c-debris", "lat": -10.481786312198816, "lon": -44.57865446516359, "alt_km": 608.7001125929946, "timestamp": "2025-12-14T05:42:18.744076+00:00", "meta": {"OBJECT_NAME": "FENGYUN 1C DEB", "OBJECT_ID": "1999-025CBY", "EPOCH": "2025-12-12T09:09:26.847936", "MEAN_MOTION": 14.83857356, "ECCENTRICITY": 0.00240808, "INCLINATION": 98.6513, "RA_OF_ASC_NODE": 135.0249, "ARG_OF_PERICENTER": 152.5842, "MEAN_ANOMALY": 207.6646, "EPHEMERIS_TYPE": 0, "CLASSIFICATION_TYPE": "U", "NORAD_CAT_ID": 31666, "ELEMENT_SET_NO": 999, "REV_AT_EPOCH": 97266, "BSTAR": 0.0058171617, "MEAN_MOTION_DOT": 0.00048773, "MEAN_MOTION_DDOT": 0}, "tle": {"line1": "1 31666U 99025CBY 25346.38156074  .00048773  00000+0  58172-2 0  9994", "line2": "2 31666  98.6513 135.0249 0024080 152.5842 207.6646 14.83857356972662"}}, "geometry": {"type": "Point", "coordinates": [-44.57865446516359, -10.481786312198816]}}, {"type": "Feature", "properties": {"norad_id": 31667, "name": "FENGYUN 1C DEB", "group": "fengyun-1c-debris", "lat": -25.754965612195466, "lon": -155.29099779079976, "alt_km": 830.9817687317636, "timestamp": "2025-12-14T05:42:18.744086+00:00", "meta": {"OBJECT_NAME": "FENGYUN 1C DEB", "OBJECT_ID": "1999-025CBZ", "EPOCH": "2025-12-08T19:56:03.363072", "MEAN_MOTION": 14.2349492, "ECCENTRICITY": 0.00517979, "INCLINATION": 99.0845, "RA_OF_ASC_NODE": 194.7017, "ARG_OF_PERICENTER": 98.3602, "MEAN_ANOMALY": 262.3452, "EPHEMERIS_TYPE": 0, "CLASSIFICATION_TYPE": "U", "NORAD_CAT_ID": 31667, "ELEMENT_SET_NO": 999, "REV_AT_EPOCH": 55937, "BSTAR": 0.00044657651, "MEAN_MOTION_DOT": 9.83e-06, "MEAN_MOTION_DDOT": 0}, "tle": {"line1": "1 31667U 99025CBZ 25342.83059448  .00000983  00000+0  44658-3 0  9994", "line2": "2 31667  99.0845 194.7017 0051797  98.3602 262.3452 14.23494920559377"}}, "geometry": {"type": "Point", "coordinates": [-155.29099779079976, -25.754965612195466]}}, {"type": "Feature", "properties": {"norad_id": 31672, "name": "FENGYUN 1C DEB", "group": "fengyun-1c-debris", "lat": -16.84745052397884, "lon": -6.803374321306827, "alt_km": 786.0302355537478, "timestamp": "2025-12-14T05:42:18.744096+00:00", "meta": {"OBJECT_NAME": "FENGYUN 1C DEB", "OBJECT_ID": "1999-025CCE", "EPOCH": "2025-12-09T18:52:12.464832", "MEAN_MOTION": 14.50862941, "ECCENTRICITY": 0.0108049, "INCLINATION": 98.9574, "RA_OF_ASC_NODE": 171.1973, "ARG_OF_PERICENTER": 350.6234, "MEAN_ANOMALY": 9.2939, "EPHEMERIS_TYPE": 0, "CLASSIFICATION_TYPE": "U", "NORAD_CAT_ID": 31672, "ELEMENT_SET_NO": 999, "REV_AT_EPOCH": 64828, "BSTAR": 0.002472233, "MEAN_MOTION_DOT": 0.00010473, "MEAN_MOTION_DDOT": 0}, "tle": {"line1": "1 31672U 99025CCE 25343.78625538  .00010473  00000+0  24722-2 0  9998", "line2": "2 31672  98.9574 171.1973 0108049 350.6234   9.2939 14.50862941648287"}}, "geometry": {"type": "Point", "coordinates": [-6.803374321306827, -16.84745052397884]}}]}